SHIYAN-1 (SY-1)         
1 28220U 04012A   26068.73650539  .00016393  00000+0  54854-3 0  9991
2 28220  97.8764 140.5238 0005873  23.6952 336.4557 15.31043463195862
STARLINK-34297          
1 64261U 25120F   26068.40960766  .00025377  00000+0  86586-3 0  9998
2 64261  53.1583 117.9679 0001053  89.9966 270.1155 15.30205385 43776
